town,zipcode,fema,test,parent
Adamant,5640,,512.11,
Addison,,512.11,2372.34,Vergennes
Albany,5820,2372.34,,
Alburgh,5440,,31222.66,
Andover,,31222.66,154891.78,Chester
Arlington,,154891.78,164502.21,Arlington
Arlington,5250,164502.21,0,TRUE
Ascutney,5030,0,27787.79,
Athens,,27787.79,,Chester
Averill,5901,,,
Bakersfield,5441,,108980.28,
Barnard,5031,108980.28,3995.83,
Barnet,5821,3995.83,35223.26,
Barre,5641,35223.26,42464.49,Barre
Barre,5641,42464.49,6450.03,TRUE
Barton,5822,6450.03,,
Beecher Falls,5902,,121627.26,
Bellows Falls,,121627.26,124468.8,Bellows Falls
Bellows Falls,5101,124468.8,0,TRUE
Belmont,5730,0,,
Belvidere Center,5442,,190121.71,
Bennington,,190121.71,290009.93,Bennington
Bennington,5201,290009.93,3079.97,TRUE
Benson,5731,3079.97,848168.23,
Berlin,,848168.23,838387.53,Montpelier
Bethel,5032,838387.53,21413.63,
Bolton,,21413.63,7886.1,Waterbury
Bomoseen,5732,7886.1,17540.08,
Bondville,,17540.08,2567.12,Winhall
Bradford,5033,2567.12,219835.35,
Braintree,,219835.35,114849.79,Randolph
Brandon,,114849.79,125140.13,Brandon
Brandon,5733,125140.13,665172.27,TRUE
Brattleboro,,665172.27,728549.47,Brattleboro
Brattleboro,5301,728549.47,57240.95,TRUE
Bridgewater,,57240.95,58776.95,Bridgewater
Bridgewater,5034,58776.95,570164.83,TRUE
Bridgewater Corners,5035,570164.83,0,
Bridport,5734,0,6566.6,
Bristol,,6566.6,22329.63,Bristol
Bristol,5443,22329.63,49979.98,TRUE
Brookfield,5036,49979.98,38900.11,
Brookline,,38900.11,54275.56,Newfane
Brownsville,5037,54275.56,14273.31,
Burlington,5401,14273.31,,
Burlington,5405,,,
Burlington,5408,,8676.56,
Cabot,5647,8676.56,,
Calais,5648,,10433.3,
Cambridge,5444,10433.3,8299.75,
Cambridgeport,5141,8299.75,,
Canaan,5903,,29971.16,
Castleton,5735,29971.16,208383.9,
Cavendish,5142,208383.9,36967.47,
Center Rutland,5736,36967.47,0,
Charlotte,5445,0,0,
Chelsea,5038,0,238095.18,
Chester,,238095.18,297105.63,Chester
Chester,5143,297105.63,5414.39,TRUE
Chittenden,5737,5414.39,787.52,
Clarendon,,787.52,132941.61,Clarendon
Clarendon,5759,132941.61,15955.2,TRUE
Colchester,5439,15955.2,,
Colchester,5446,,1476.99,
Concord,5824,1476.99,41661.65,
Corinth,5039,41661.65,1415.34,
Cornwall,,1415.34,13790.62,Middlebury
Coventry,5825,13790.62,,
Craftsbury,5826,,,
Craftsbury Common,5827,,60426.91,
Cuttingsville,,60426.91,59434.03,Shrewsbury
Danby,,59434.03,78986.7,Danby
Danby,5739,78986.7,4995.7,TRUE
Danville,5828,4995.7,0,
Derby,5829,0,0,
Derby Line,5830,0,6646.65,
Dorset,5251,6646.65,0,
Dummerston,,0,36274.57,Brattleboro
Duxbury,,36274.57,0,Waterbury
E Dummerston,,0,91619.35,Putney
East Arlington,5252,91619.35,16195.33,
East Barre,5649,16195.33,,
East Berkshire,5447,,,
East Burke,5832,,0,
East Calais,5650,0,0,
East Charleston,5833,0,7376.54,
East Corinth,5040,7376.54,84576.35,
East Dorset,5253,84576.35,114155.49,
East Dover,5341,114155.49,,
East Fairfield,5448,,0,
East Granville,,0,4265.78,Roxbury
East Hardwick,5836,4265.78,,
East Haven,5837,,8977.63,
East Middlebury,5740,8977.63,40735.42,
East Montpelier,5651,40735.42,0,
East Montpelier Center,,0,4500.51,Montpelier
East Randolph,5041,4500.51,0,
East Roxbury,,0,,Randolph
East Ryegate,5042,,,
East Thetford,5043,,23164.26,
East Wallingford,5742,23164.26,,
Eden,5652,,,
Eden Mills,5653,,4080.48,
Enosburg Falls,5450,4080.48,0,
Essex Junction,5452,0,553.66,
Fairfax,5454,553.66,0,
Fairfield,5455,0,51312.49,
Fairhaven,,51312.49,53778.41,Fairhaven
Fairhaven,5743,53778.41,2358.5,TRUE
Fairlee,5045,2358.5,,
Ferrisburgh,5456,,36371.34,
Florence,5744,36371.34,1660.2,
Forest Dale,5745,1660.2,,
Franklin,5457,,21219.49,
Gaysville,5746,21219.49,,
Gilman,5904,,0,
Glover,5839,0,0,
Goshen,,0,104839.34,Brandon
Grafton,5146,104839.34,,
Grand Isle,5458,,1354.31,
Graniteville,5654,1354.31,118309.56,
Granville,5747,118309.56,,
Greensboro,5841,,718.54,
Greensboro Bend,5842,718.54,43234.92,
Groton,5046,43234.92,,
Guildhall,5905,,27050.28,
Guilford,,27050.28,1976.74,Brattleboro
Halifax,,1976.74,150818.06,Brattleboro
Hancock,5748,150818.06,33926.48,
Hardwick,5843,33926.48,41588.27,
Hartford,5047,41588.27,79658.5,
Hartland,5048,79658.5,,
Highgate Center,5459,,0,
Hinesburg,5461,0,15684.39,
Huntington,5462,15684.39,5053.05,
Hyde Park,5655,5053.05,1402.34,
Ira,,1402.34,14475.79,West Rutland
Irasburg,5845,14475.79,0,
Island Pond,5846,0,,
Isle La Motte,5463,,77523.6,
Jacksonville,5342,77523.6,238451.16,
Jamaica,5343,238451.16,6059.88,
Jay,,6059.88,3198.62,North Troy
Jeffersonville,5464,3198.62,160.73,
Jericho,5465,160.73,2790.25,
Johnson,5656,2790.25,23987.56,
Jonesville,5466,23987.56,108158.13,
Killington,5751,108158.13,2705.12,
Lake Elmore,5657,2705.12,10290.34,
Leicester,,10290.34,15763.03,Brandon
Lincoln,,15763.03,168334.13,Bristol
Londonderry,5148,168334.13,2125.08,
Lowell,5847,2125.08,602341.93,
Ludlow,5149,602341.93,10846,
Lunenburg,5906,10846,4914.89,
Lyndon Center,5850,4914.89,107949.91,
Lyndonville,5851,107949.91,1525.7,
Manchester,5254,1525.7,143445.43,
Manchester Center,5255,143445.43,170342.88,
Marlboro,5344,170342.88,58026.32,
Marshfield,5658,58026.32,,
Mcindoe Falls,5050,,23911.25,
Mendon,,23911.25,36430.33,Rutland
Middlebury,,36430.33,37845.67,Middlebury
Middlebury,5753,37845.67,47697.33,TRUE
Middlesex,,47697.33,26710.79,Montpelier
Middletown Springs,5757,26710.79,7097.39,
Milton,5468,7097.39,6138.54,
Montgomery,5470,6138.54,6915.08,
Montgomery Center,5471,6915.08,1195196.25,
Montpelier,,1195196.25,2091061.81,Montpelier
Montpelier,5602,2091061.81,487321.94,TRUE
Moretown,5660,487321.94,,
Morgan,5853,,0,
Morristown,5661,0,46834.16,
Mount Holly,5758,46834.16,19552.67,
Mount Tabor,,19552.67,38261.05,Danby
New Haven,5472,38261.05,7981.8,
Newbury,5051,7981.8,65079.02,
Newfane,,65079.02,347814.61,Newfane
Newfane,5345,347814.61,0,TRUE
Newport,5855,0,0,
Newport Center,5857,0,106214.84,
North Bennington,5257,106214.84,8982.69,
North Chittenden,,8982.69,132154.09,Pittsford
North Clarendon,,132154.09,,Clarendon
North Concord,5858,,4475.68,
North Ferrisburgh,5473,4475.68,,
North Hartland,5052,,,
North Hero,5474,,650.67,
North Montpelier,5666,650.67,29075.19,
North Pomfret,5053,29075.19,38171.96,
North Pownal,5260,38171.96,22490.41,
North Springfield,5150,22490.41,2034.12,
North Troy,,2034.12,8094,North Troy
North Troy,5859,8094,909140.58,TRUE
Northfield,,909140.58,946392.39,Northfield
Northfield,5663,946392.39,4868.28,TRUE
Northfield Falls,5664,4868.28,,
Norton,5907,,24124.39,
Norwich,5055,24124.39,7241.23,
Orange,5641,7241.23,2005.87,Barre
Orleans,5860,2005.87,3212.76,
Orwell,5760,3212.76,0,
Panton,,0,114482.35,Vergennes
Pawlet,5761,114482.35,7362.1,
Peacham,5862,7362.1,102156.73,
Perkinsville,5151,102156.73,2058.05,
Peru,5152,2058.05,255817.37,
Pittsfield,5762,255817.37,29163.78,
Pittsford,,29163.78,38146.47,Pittsford
Pittsford,5763,38146.47,2110.49,TRUE
Plainfield,5667,2110.49,257756.93,
Plymouth,5056,257756.93,,
Post Mills,5058,,52972.15,
Poultney,5764,52972.15,51785.07,
Pownal,5261,51785.07,49489.63,
Proctor,5765,49489.63,109825.11,
Proctorsville,5153,109825.11,41499.89,
Putney,,41499.89,41499.89,Putney
Putney,5346,41499.89,97416.22,TRUE
Quechee,5059,97416.22,396227.15,
Randolph,,396227.15,616062.5,Randolph
Randolph,5060,616062.5,810.8,TRUE
Randolph Center,5061,810.8,0,
Rawsonville,,0,193499.98,South Londonderry
Reading,,193499.98,219381.03,Reading
Reading,5062,219381.03,66840.51,TRUE
Readsboro,5350,66840.51,59783.52,
Richford,5476,59783.52,198531.31,
Richmond,5477,198531.31,5698.28,
Ripton,5766,5698.28,362745.41,
Rochester,5767,362745.41,2841.54,
Rockingham,,2841.54,256424.95,Bellows Falls
Roxbury,,256424.95,264873.99,Roxbury
Roxbury,5669,264873.99,39230.95,TRUE
Royalton,,39230.95,18106.13,Royalton
Rupert,5768,18106.13,633174.01,
Rutland,,633174.01,657085.26,Rutland
Rutland,5701,657085.26,0,TRUE
Ryegate,,0,9637.46,Rutland
Saint Albans,5478,9637.46,,
Saint Albans Bay,5481,,11687.63,
Saint Johnsbury,5819,11687.63,5127.48,
Salisbury,5769,5127.48,1901.48,
Sandgate,,1901.48,97015.71,Arlington
Saxtons River,5154,97015.71,5583.49,
Searsburg,,5583.49,13895.56,Wilmington
Shaftsbury,5262,13895.56,530070.19,
Sharon,5065,530070.19,9241.52,
Sheffield,5866,9241.52,784.71,
Shelburne,5482,784.71,,
Sheldon,5483,,,
Sheldon Springs,5485,,0,
Shoreham,5770,0,42528.72,
Shrewsbury,,42528.72,102955.63,Shrewsbury
Shrewsbury,5738,102955.63,413.75,TRUE
South Burlington,5403,413.75,,
South Hero,5486,,112681.21,
South Londonderry,,112681.21,114083.5,South Londonderry
South Londonderry,5155,114083.5,243835.48,TRUE
South Newfane,,243835.48,31007.28,Newfane
South Pomfret,5067,31007.28,25881.05,
South Reading,,25881.05,391137.14,Reading
South Royalton,,391137.14,430368.09,Royalton
South Royalton,5068,430368.09,68847.4,TRUE
South Ryegate,5069,68847.4,45458.89,
South Strafford,5070,45458.89,0,
South Windham,,0,8397.41,Windham
South Woodstock,5071,8397.41,18933.85,
Springfield,5156,18933.85,8158.35,
Stamford,5352,8158.35,0,
Starksboro,5487,0,537036.56,
Stockbridge,5772,537036.56,20377.83,
Stowe,5672,20377.83,30619.98,
Strafford,5072,30619.98,872.1,
Stratton,,872.1,1402.29,West Wardsboro
Stratton Mountain,,1402.29,0,South Londonderry
Sudbury,,0,7708.95,Brandon
Sunderland,,7708.95,7757.08,Arlington
Sutton,5867,7757.08,52.44,
Swanton,5488,52.44,1536,
Taftsville,5073,1536,0,
Thetford,5074,0,49702.85,
Thetford Center,5075,49702.85,6411.13,
Topsham,5076,6411.13,51767.86,
Townshend,5353,51767.86,516.08,
Troy,5868,516.08,18786.27,
Tunbridge,5077,18786.27,6584.16,
Underhill,5489,6584.16,204.5,
Underhill Center,5490,204.5,1621.96,
Vergennes,,1621.96,2134.07,Vergennes
Vergennes,5491,2134.07,23161,TRUE
Vernon,5354,23161,80066.3,
Vershire,5079,80066.3,30200,
W Berlin,,30200,7390.43,Northfield
W Braintree,,7390.43,2672.03,Roxbury
W Brattleboro,,2672.03,163042.27,Brattleboro
Waitsfield,5673,163042.27,173764.04,
Wallingford,5773,173764.04,120308.67,
Wardsboro,5355,120308.67,121792.1,
Warren,5674,121792.1,5358.65,
Washington,5675,5358.65,2608373.19,
Waterbury,,2608373.19,2666061.39,Waterbury
Waterbury,5676,2666061.39,0,TRUE
Waterbury Center,5677,0,,
Waterville,5492,,0,
Websterville,5678,0,5152.65,
Wells,5774,5152.65,3118.37,
Wells River,5081,3118.37,0,
West Arlington,,0,7051.81,Arlington
West Berlin,,7051.81,1058.61,Northfield
West Braintree,,1058.61,31678.15,Roxbury
West Brattleboro,,31678.15,1536,Brattleboro
West Bridgewater,,1536,0,Bridgewater
West Brookfield,,0,3544.8,Randolph
West Burke,5871,3544.8,384.9,
West Charleston,5872,384.9,4726.13,
West Danville,5873,4726.13,55092.43,
West Dover,5356,55092.43,4176.31,
West Dummerston,5357,4176.31,41982.7,
West Fairlee,5083,41982.7,,
West Glover,5875,,63023.76,
West Halifax,5358,63023.76,389958.04,
West Hartford,5084,389958.04,2465.92,
West Haven,,2465.92,0,Fairhaven
West Marlboro,,0,31040.87,Wilmington
West Pawlet,5775,31040.87,9789.02,
West Rupert,5776,9789.02,106272.72,
West Rutland,,106272.72,107675.06,West Rutland
West Rutland,5777,107675.06,5445.05,TRUE
West Topsham,5086,5445.05,8303.7,
West Townshend,,8303.7,33169.37,Windham
West Wardsboro,,33169.37,34041.47,West Wardsboro
West Wardsboro,5360,34041.47,46903.37,TRUE
West Windsor,5089,46903.37,0,
Westfield,5874,0,0,
Westford,5494,0,55701.82,
Westminster,5158,55701.82,4278,
Westminster Station,5159,4278,0,
Westminster W,,0,14716.78,Putney
Weston,5161,14716.78,231591.76,
White River Junction,5001,231591.76,10228.46,
Whiting,5778,10228.46,87752.22,
Whitingham,5361,87752.22,40397.46,
Williamstown,5679,40397.46,41892.7,
Williamsville,5362,41892.7,1896.94,
Williston,5495,1896.94,373365.91,
Wilmington,,373365.91,378949.4,Wilmington
Wilmington,5363,378949.4,1822.16,TRUE
Windham,,1822.16,10125.86,Windham
Windham,5359,10125.86,77248.78,TRUE
Windsor,5089,77248.78,7354.88,
Winhall,,7354.88,24894.96,Winhall
Winhall,5340,24894.96,0,TRUE
Winooski,5404,0,22436.85,
Wolcott,5680,22436.85,2945.48,
Woodbury,5681,2945.48,99888.22,
Woodford,,99888.22,911605.61,Bennington
Woodstock,5091,911605.61,18305.78,
Worcester,5682,18305.78,,